NORAD_CAT_ID,OBJECT_NAME,OBJECT_TYPE,EPOCH,MEAN_MOTION,ECCENTRICITY,INCLINATION,RA_OF_ASC_NODE,ARG_OF_PERICENTER,MEAN_ANOMALY,BSTAR,MEAN_MOTION_DOT,MEAN_MOTION_DDOT,TLE_LINE0,TLE_LINE1,TLE_LINE2,SEMIMAJOR_AXIS,PERIOD,APOGEE,PERIGEE,DECAYED
49148.0,STARLINK-3048,PAYLOAD,2021-12-01 22:00:00,15.697893300000002,0.0003429,69.9997,265.3825,275.9246,270.3294,-1.3307e-05,-1.803e-05,0.0,0 STARLINK-3048,1 49148U 21082U   21335.91667824 -.00001803  00000-0 -13307-4 0  9998,2 49148  69.9997 265.3825 0003429 275.9246 270.3294 15.69789330  3686,6737.637,91.732,361.812,357.191,0.0
49148.0,STARLINK-3048,PAYLOAD,2021-12-02 04:00:00,15.69774555,0.0003506,69.9998,264.6797,280.9883,237.6444,0.00034214,0.00040874,0.0,0 STARLINK-3048,1 49148U 21082U   21336.16667824  .00040874  00000-0  34214-3 0  9994,2 49148  69.9998 264.6797 0003506 280.9883 237.6444 15.69774555 13638,6737.679,91.733,361.906,357.182,0.0
49148.0,STARLINK-3048,PAYLOAD,2021-12-02 12:00:00,15.69802213,0.0003511,69.9995,263.7427,277.9803,323.8284,-0.00076578,-0.00090848,0.0,0 STARLINK-3048,1 49148U 21082U   21336.50001157 -.00090848  00000-0 -76578-3 0  9990,2 49148  69.9995 263.7427 0003511 277.9803 323.8284 15.69802213 13698,6737.6,91.731,361.83,357.099,0.0
49148.0,STARLINK-3048,PAYLOAD,2021-12-02 14:00:01,15.69746651,0.0003525,69.9996,263.5083,275.4017,77.2155,8.1376e-06,7.59e-06,0.0,0 STARLINK-3048,1 49148U 21082U   21336.58334491  .00000759  00000-0  81376-5 0  9992,2 49148  69.9996 263.5083 0003525 275.4017  77.2155 15.69746651  3688,6737.759,91.735,361.999,357.249,0.0
49148.0,STARLINK-3048,PAYLOAD,2021-12-02 22:00:00,15.69749812,0.0003495,69.9996,262.5714,275.4489,160.2829,-0.00052413,-0.00062322,0.0,0 STARLINK-3048,1 49148U 21082U   21336.91667824 -.00062322  00000-0 -52413-3 0  9992,2 49148  69.9996 262.5714 0003495 275.4489 160.2829 15.69749812  3668,6737.75,91.734,361.97,357.26,0.0
49148.0,STARLINK-3048,PAYLOAD,2021-12-03 04:00:00,15.69692233,0.0003424,69.9996,261.8687,280.7619,127.3033,0.00046712,0.00055791,0.0,0 STARLINK-3048,1 49148U 21082U   21337.16667824  .00055791  00000-0  46712-3 0  9995,2 49148  69.9996 261.8687 0003424 280.7619 127.3033 15.69692233 13795,6737.915,91.738,362.087,357.473,0.0
49148.0,STARLINK-3048,PAYLOAD,2021-12-03 14:00:01,15.69708437,0.0003397,69.9996,260.6973,275.811,326.1259,0.00053109,0.00063562,0.0,0 STARLINK-3048,1 49148U 21082U   21337.58334491  .00063562  00000-0  53109-3 0  9995,2 49148  69.9996 260.6973 0003397 275.8110 326.1259 15.69708437  3680,6737.868,91.737,362.022,357.444,0.0
49148.0,STARLINK-3048,PAYLOAD,2021-12-03 20:00:01,15.69756453,0.0003395,70.0,259.9947,273.1751,301.0708,0.0001158,0.00013638,0.0,0 STARLINK-3048,1 49148U 21082U   21337.83334491  .00013638  00000-0  11580-3 0  9999,2 49148  70.0000 259.9947 0003395 273.1751 301.0708 15.69756453 13897,6737.731,91.734,361.883,357.30800000000005,0.0
49148.0,STARLINK-3048,PAYLOAD,2021-12-03 22:00:00,15.69774928,0.0003441,70.0001,259.7604,274.8424,50.1835,-0.00019875,-0.00023896,0.0,0 STARLINK-3048,1 49148U 21082U   21337.91667824 -.00023896  00000-0 -19875-3 0  9991,2 49148  70.0001 259.7604 0003441 274.8424  50.1835 15.69774928  3678,6737.678000000001,91.733,361.861,357.225,0.0
49148.0,STARLINK-3048,PAYLOAD,2021-12-04 06:00:00,15.69761514,0.0003477,69.9998,258.8233,280.1918,127.9859,0.00037305,0.00044581,0.0,0 STARLINK-3048,1 49148U 21082U   21338.25001157  .00044581  00000-0  37305-3 0  9990,2 49148  69.9998 258.8233 0003477 280.1918 127.9859 15.69761514  3716,6737.715999999999,91.734,361.924,357.23900000000015,0.0
49148.0,STARLINK-3048,PAYLOAD,2021-12-04 20:00:01,15.69754924,0.0003593,69.9998,257.1839,272.7465,190.9342,-1.0509e-05,-1.467e-05,0.0,0 STARLINK-3048,1 49148U 21082U   21338.83334491 -.00001467  00000-0 -10509-4 0  9990,2 49148  69.9998 257.1839 0003593 272.7465 190.9342 15.69754924 14056,6737.735,91.734,362.021,357.17900000000014,0.0
49148.0,STARLINK-3048,PAYLOAD,2021-12-05 04:00:00,15.69454269,0.0003342,69.9999,256.2453,277.0003,269.9253,0.0019826,0.00240434,0.0,0 STARLINK-3048,1 49148U 21082U   21339.16667824  .00240434  00000-0  19826-2 0  9992,2 49148  69.9999 256.2453 0003342 277.0003 269.9253 15.69454269 14100,6738.596,91.752,362.713,358.209,0.0
49148.0,STARLINK-3048,PAYLOAD,2021-12-05 12:00:00,15.69764251,0.0003558,69.9992,255.3099,275.2876,354.7027,4.9533e-05,5.709e-05,0.0,0 STARLINK-3048,1 49148U 21082U   21339.50001157  .00005709  00000-0  49533-4 0  9995,2 49148  69.9992 255.3099 0003558 275.2876 354.7027 15.69764251 14169,6737.709,91.734,361.971,357.176,0.0
49148.0,STARLINK-3048,PAYLOAD,2021-12-05 14:00:01,15.69740018,0.0003562,69.9993,255.0756,272.925,107.86,0.00052306,0.00062675,0.0,0 STARLINK-3048,1 49148U 21082U   21339.58334491  .00062675  00000-0  52306-3 0  9999,2 49148  69.9993 255.0756 0003562 272.9250 107.8600 15.69740018  3697,6737.778,91.735,362.043,357.24300000000005,0.0
49148.0,STARLINK-3048,PAYLOAD,2021-12-05 22:00:00,15.69785545,0.0003496,69.9995,254.1386,273.8482,190.0714,-0.00077341,-0.00091678,0.0,0 STARLINK-3048,1 49148U 21082U   21339.91667824 -.00091678  00000-0 -77341-3 0  9998,2 49148  69.9995 254.1386 0003496 273.8482 190.0714 15.69785545  3684,6737.648,91.732,361.86800000000005,357.157,0.0
49148.0,STARLINK-3048,PAYLOAD,2021-12-06 04:00:00,15.69710699,0.0003355,69.9996,253.4359,278.3751,157.9048,0.00049854,0.0005962999999999,0.0,0 STARLINK-3048,1 49148U 21082U   21340.16667824  .00059630  00000-0  49854-3 0  9995,2 49148  69.9996 253.4359 0003355 278.3751 157.9048 15.69710699 14266,6737.861999999999,91.737,361.987,357.466,0.0
49148.0,STARLINK-3048,PAYLOAD,2021-12-06 12:00:00,15.69742224,0.0003242,69.9992,252.499,274.4627,244.9256,1.9169e-05,2.076e-05,0.0,0 STARLINK-3048,1 49148U 21082U   21340.50001157  .00002076  00000-0  19169-4 0  9993,2 49148  69.9992 252.4990 0003242 274.4627 244.9256 15.69742224 14319,6737.772,91.735,361.821,357.452,0.0
49148.0,STARLINK-3048,PAYLOAD,2021-12-06 14:00:01,15.69724623,0.0003223,69.9992,252.2649,272.4379,357.8019,0.00033708,0.00040178,0.0,0 STARLINK-3048,1 49148U 21082U   21340.58335648  .00040178  00000-0  33708-3 0  9995,2 49148  69.9992 252.2649 0003223 272.4379 357.8019 15.69724623  3681,6737.821999999999,91.736,361.859,357.515,0.0
49148.0,STARLINK-3048,PAYLOAD,2021-12-06 22:00:00,15.69746989,0.0003115,69.9991,251.3282,273.6905,79.5949,-0.00069373,-0.00082209,0.0,0 STARLINK-3048,1 49148U 21082U   21340.91667824 -.00082209  00000-0 -69373-3 0  9996,2 49148  69.9991 251.3282 0003115 273.6905  79.5949 15.69746989  3691,6737.7580000000025,91.735,361.722,357.524,0.0
49148.0,STARLINK-3048,PAYLOAD,2021-12-07 04:00:00,15.69682745,0.0003049,69.9987,250.6255,279.6075,46.0094,0.00046563,0.00055586,0.0,0 STARLINK-3048,1 49148U 21082U   21341.16667824  .00055586  00000-0  46563-3 0  9996,2 49148  69.9987 250.6255 0003049 279.6075  46.0094 15.69682745 14420,6737.941999999999,91.738,361.861,357.75199999999984,0.0
49148.0,STARLINK-3048,PAYLOAD,2021-12-07 14:00:01,15.69682699,0.0003069,69.9984,249.4542,271.8586,247.6156,0.00071729,0.00086057,0.0,0 STARLINK-3048,1 49148U 21082U   21341.58334491  .00086057  00000-0  71729-3 0  9992,2 49148  69.9984 249.4542 0003069 271.8586 247.6156 15.69682699  3687,6737.941999999999,91.738,361.875,357.73900000000015,0.0
49148.0,STARLINK-3048,PAYLOAD,2021-12-07 20:00:01,15.69748145,0.0003053,69.9988,248.7515,271.7635,220.0698,-0.00014589,-0.00017589,0.0,0 STARLINK-3048,1 49148U 21082U   21341.83335648 -.00017589  00000-0 -14589-3 0  9992,2 49148  69.9988 248.7515 0003053 271.7635 220.0698 15.69748145 14520,6737.755,91.734,361.677,357.56300000000016,0.0
49148.0,STARLINK-3048,PAYLOAD,2021-12-07 22:00:00,15.69747002,0.0003067,69.9987,248.5173,273.7402,328.8083,-0.00016814,-0.00020232,0.0,0 STARLINK-3048,1 49148U 21082U   21341.91667824 -.00020232  00000-0 -16814-3 0  9997,2 49148  69.9987 248.5173 0003067 273.7402 328.8083 15.69747002  3687,6737.7580000000025,91.735,361.689,357.556,0.0
49148.0,STARLINK-3048,PAYLOAD,2021-12-08 14:00:01,15.69778761,0.0003048,69.9992,246.642,272.1007,136.6947,-0.0019209,-0.00223775,0.0,0 STARLINK-3048,1 49148U 21082U   21342.58334491 -.00223775  00000-0 -19209-2 0  9999,2 49148  69.9992 246.6420 0003048 272.1007 136.6947 15.69778761  3680,6737.667,91.733,361.586,357.478,0.0
49148.0,STARLINK-3048,PAYLOAD,2021-12-08 20:00:01,15.6978942,0.0002985,69.9985,245.941,272.3234,108.7988,-0.00028656,-0.00034335,0.0,0 STARLINK-3048,1 49148U 21082U   21342.83334491 -.00034335  00000-0 -28656-3 0  9996,2 49148  69.9985 245.9410 0002985 272.3234 108.7988 15.69789420 14687,6737.636,91.732,361.513,357.49,0.0
49148.0,STARLINK-3048,PAYLOAD,2021-12-08 22:00:00,15.69783716,0.0003011,69.9984,245.7067,274.3112,217.6039,-0.00026529,-0.00031804,0.0,0 STARLINK-3048,1 49148U 21082U   21342.91667824 -.00031804  00000-0 -26529-3 0  9999,2 49148  69.9984 245.7067 0003011 274.3112 217.6039 15.69783716  3687,6737.653,91.732,361.547,357.48900000000015,0.0
49148.0,STARLINK-3048,PAYLOAD,2021-12-09 11:12:15,15.69772425,0.0003023,69.9982,244.1599,274.1705,85.9145,0.00011696,0.00013785,0.0,0 STARLINK-3048,1 49148U 21082U   21343.46685050  .00013785  00000-0  11696-3 0  9996,2 49148  69.9982 244.1599 0003023 274.1705  85.9145 15.69772425 14789,6737.685,91.733,361.587,357.51300000000015,0.0
49148.0,STARLINK-3048,PAYLOAD,2021-12-09 22:00:00,15.69759604,0.0003246,69.9982,242.8954,273.1167,108.2613,-0.00044433,-0.00052943,0.0,0 STARLINK-3048,1 49148U 21082U   21343.91667824 -.00052943  00000-0 -44433-3 0  9991,2 49148  69.9982 242.8954 0003246 273.1167 108.2613 15.69759604  3676,6737.722,91.734,361.774,357.4,0.0
49148.0,STARLINK-3048,PAYLOAD,2021-12-10 14:00:01,15.69704597,0.0003165,69.9981,241.0215,270.9516,276.6691,0.00073627,0.00088446,0.0,0 STARLINK-3048,1 49148U 21082U   21344.58334491  .00088446  00000-0  73627-3 0  9998,2 49148  69.9981 241.0215 0003165 270.9516 276.6691 15.69704597  3687,6737.879,91.737,361.877,357.612,0.0
